STARLINK-1138           
1 45178U 20012A   21168.53350188 -.00001098  00000-0 -54884-4 0  9994
2 45178  53.0535 235.6410 0000914 114.4890 245.6195 15.06389108 74015
STARLINK-1143           
1 45179U 20012B   21168.53718863  .00000233  00000-0  34557-4 0  9996
2 45179  53.0549 235.6284 0001056 101.3325 258.7782 15.06399672 74010
STARLINK-1192           
1 45180U 20012C   21168.52613555  .00000574  00000-0  57416-4 0  9996
2 45180  53.0549 235.6768 0000949 122.3670 237.7411 15.06397414 74664
STARLINK-1200           
1 45181U 20012D   21168.58880557  .00000489  00000-0  51737-4 0  9996
2 45181  53.0533 235.3919 0000664 134.9903 225.1140 15.06384667 74021
STARLINK-1201           
1 45182U 20012E   21168.47639212  .00000501  00000-0  52521-4 0  9992
2 45182  53.0538 215.9002 0000621  90.3470 269.7590 15.06386636 74785
STARLINK-1202           
1 45183U 20012F   21168.55930738 -.00001191  00000-0 -61104-4 0  9994
2 45183  53.0539 235.5235 0001035 103.9418 256.1686 15.06387525 74678
STARLINK-1205           
1 45184U 20012G   21168.81548118 -.00001037  00000-0 -50738-4 0  9991
2 45184  53.0547 214.3759 0000549 114.9411 245.1635 15.06391456 74027
STARLINK-1216           
1 45185U 20012H   21168.88367345 -.00000449  00000-0 -11276-4 0  9990
2 45185  53.0538 234.0700 0000871 117.7537 242.3540 15.06396443 74666
STARLINK-1224           
1 45186U 20012J   21168.89840680  .00000676  00000-0  64273-4 0  9995
2 45186  53.0539 234.0018 0000833 129.3585 230.7478 15.06398429 74072
STARLINK-1225           
1 45187U 20012K   21168.50402836  .00000604  00000-0  59439-4 0  9990
2 45187  53.0550 235.7765 0000781 115.9957 244.1112 15.06389688 74654
STARLINK-1228           
1 45188U 20012L   21169.13064469  .00000541  00000-0  55215-4 0  9995
2 45188  53.0555 192.9604 0000315 149.4293 210.6715 15.06393668 74328
STARLINK-1230           
1 45189U 20012M   21168.50769586  .00000884  00000-0  78229-4 0  9998
2 45189  53.0540 235.7558 0000657 111.9769 248.1290 15.06400821 73725
